0 COSMOS 1030 DEB
1 12907U 78083E   13280.84498747 -.00000666  00000-0  00000+0 0   472
2 12907 067.2569 102.3029 5593352 089.4160 331.0199 02.00261916241654
0 COSMOS 1030 DEB
1 12907U 78083E   13281.03136661 -.00000667  00000-0  00000+0 0   480
2 12907 067.2479 102.2870 5593736 089.4155 105.3825 02.00261681241654
0 COSMOS 1030 DEB
1 12907U 78083E   13285.83857157 -.00000674  00000-0  00000+0 0   491
2 12907 067.2497 102.0082 5594607 089.3104 331.0836 02.00253585241753
0 COSMOS 1030 DEB
1 12907U 78083E   13286.03544779 -.00000674  00000-0  00000+0 0   509
2 12907 067.2469 102.0001 5595908 089.3000 113.0147 02.00253768241759
0 COSMOS 1030 DEB
1 12907U 78083E   13290.33297606 -.00000685  00000-0  00000+0 0   514
2 12907 067.2567 101.7591 5597299 089.1995 331.1519 02.00246577241840
0 COSMOS 1030 DEB
1 12907U 78083E   13290.33298774  .00000030  00000-0  10000-3 0   520
2 12907 067.2519 101.7536 5599146 089.2010 331.1594 02.00249601241842
0 COSMOS 1030 DEB
1 12907U 78083E   13290.49755840 -.00000687  00000-0  00000+0 0   523
2 12907 067.2462 101.7443 5597834 089.1983 089.8003 02.00246431241846
0 COSMOS 1030 DEB
1 12907U 78083E   13293.82493013 -.00000715  00000-0  00000+0 0   537
2 12907 067.2459 101.5533 5599226 089.1229 328.4643 02.00240900241915
